BEIDOU-3 G2             
1 45344U 20017A   23116.85296343 -.00000143  00000+0  00000+0 0  9990
2 45344   1.9994   9.1736 0002106  67.6196 164.8991  1.00272134 11756
BEIDOU-3 G3             
1 45807U 20040A   23117.56247920 -.00000356  00000+0  00000+0 0  9992
2 45807   0.7908 322.9174 0006516 327.8029 237.6093  1.00275909 10584
GALAXY 30 (G-30)        
1 46114U 20056C   23116.65283847  .00000035  00000+0  00000+0 0  9991
2 46114   0.0157 259.2736 0001904 129.1591 295.9778  1.00271324  9788
